      2.10          N: GNSS NAV DATA                        RINEX VERSION / TYPE
fic2rin                                 02/07/2024 00:17:55 PGM / RUN BY / DATE
                                                            END OF HEADER
8  24  2  6  1 59 44.0 -.165640842170D-03 -.181898940355D-11  .000000000000D+00
     .860000000000D+02  .123937500000D+03  .447268630534D-08 -.154457144288D+01
     .614300370216D-05  .931660342030D-02  .714696943760D-05  .515358950043D+04
     .179984000000D+06  .447034835815D-07  .294709564540D+01 -.158324837685D-06
     .955172686982D+00  .236843750000D+03  .313166710845D+00 -.800783355841D-08
     .135362781260D-09  .100000000000D+01  .230000000000D+04  .000000000000D+00
     .240000000000D+01  .000000000000D+00  .512227416039D-08  .860000000000D+02
     .172800000000D+06  .400000000000D+01
12 24  2  6 22  0  0.0 -.475433655083D-03 -.375166564481D-11  .000000000000D+00
     .410000000000D+02  .284375000000D+02  .461590655675D-08 -.859441315981D+00
     .155903398991D-05  .895793491509D-02  .900216400623D-05  .515370826721D+04
     .252000000000D+06 -.949949026108D-07  .200044766441D+01  .763684511185D-07
     .962906219080D+00  .213500000000D+03  .141036890762D+01 -.795997442203D-08
    -.540379651839D-09  .100000000000D+01  .230000000000D+04  .000000000000D+00
     .240000000000D+01  .000000000000D+00 -.125728547573D-07  .410000000000D+02
     .244800000000D+06  .400000000000D+01
16 24  2  6 22  0  0.0 -.368257984519D-03  .818545231596D-11  .000000000000D+00
     .210000000000D+02  .103437500000D+02  .451733102211D-08 -.261386625658D+01
     .273808836937D-06  .139964680420D-01  .913441181183D-05  .515372611618D+04
     .252000000000D+06  .100582838058D-06  .201843854756D+01 -.176951289177D-06
     .962464529002D+00  .202437500000D+03  .822389119351D+00 -.768889170177D-08
    -.462519265784D-09  .100000000000D+01  .230000000000D+04  .000000000000D+00
     .240000000000D+01  .000000000000D+00 -.102445483208D-07  .210000000000D+02
     .244800000000D+06  .400000000000D+01
10 24  2  6 22  0  0.0 -.722915865481D-04 -.147792889038D-11  .000000000000D+00
     .880000000000D+02 -.134906250000D+03  .388194741298D-08 -.159729929096D+01
    -.703893601894D-05  .931905710604D-02  .439025461674D-05  .515369108772D+04
     .252000000000D+06  .210478901863D-06 -.121051130092D+01 -.149011611938D-06
     .982265002320D+00  .305562500000D+03 -.237985641478D+01 -.779175312922D-08
    -.191793703263D-09  .100000000000D+01  .230000000000D+04  .000000000000D+00
     .240000000000D+01  .000000000000D+00  .232830643654D-08  .880000000000D+02
     .244800000000D+06  .400000000000D+01
9  24  2  6 22  0  0.0  .835773535073D-04  .126192389871D-10  .000000000000D+00
     .100000000000D+03 -.572500000000D+02  .427482092059D-08  .312518948128D+01
    -.288896262646D-05  .280306104105D-02  .110808759928D-04  .515373192787D+04
     .252000000000D+06 -.298023223877D-07 -.187143821623D+00 -.484287738800D-07
     .958161595391D+00  .165250000000D+03  .201872111312D+01 -.767531970787D-08
     .390730561211D-09  .100000000000D+01  .230000000000D+04  .000000000000D+00
     .240000000000D+01  .000000000000D+00  .139698386192D-08  .100000000000D+03
     .244800000000D+06  .400000000000D+01
6  24  2  6 22  0  0.0  .417054630816D-03 -.144382283906D-10  .000000000000D+00
     .590000000000D+02  .367812500000D+02  .404731144391D-08  .734755784042D+00
     .181049108505D-05  .313852122054D-02  .968575477600D-06  .515355746460D+04
     .252000000000D+06  .745058059692D-08 -.224535869191D+01 -.108033418655D-06
     .989680599895D+00  .375031250000D+03 -.779441087833D+00 -.815176812529D-08
     .560737642688D-10  .100000000000D+01  .230000000000D+04  .000000000000D+00
     .240000000000D+01  .000000000000D+00  .372529029846D-08  .590000000000D+02
     .244800000000D+06  .400000000000D+01
11 24  2  6 22  0  0.0 -.566950533539D-03 -.130739863380D-10  .000000000000D+00
     .218000000000D+03  .309375000000D+02  .455054669139D-08  .189145621961D+01
     .162236392498D-05  .124406372197D-02  .271946191788D-06  .515366162109D+04
     .252000000000D+06 -.894069671631D-07 -.220981960900D+01 -.149011611938D-07
     .966092049429D+00  .377937500000D+03 -.247348908789D+01 -.843285126210D-08
     .528593446610D-10  .100000000000D+01  .230000000000D+04  .000000000000D+00
     .240000000000D+01  .000000000000D+00 -.838190317154D-08  .730000000000D+03
     .244800000000D+06  .400000000000D+01
32 24  2  6 22  0  0.0 -.610155053437D-03 -.227373675443D-11  .000000000000D+00
     .770000000000D+02 -.775937500000D+02  .410695678552D-08 -.284224298749D+01
    -.395253300667D-05  .751697004307D-02  .106859952211D-04  .515363566399D+04
     .252000000000D+06  .540167093277D-07 -.172958279515D+00 -.102445483208D-06
     .961648064182D+00  .173375000000D+03 -.218446218869D+01 -.750745557280D-08
     .456090426568D-09  .100000000000D+01  .230000000000D+04  .000000000000D+00
     .240000000000D+01  .000000000000D+00  .465661287308D-09  .770000000000D+02
     .244800000000D+06  .400000000000D+01
24 24  2  6 22  0  0.0 -.427390914410D-03 -.648014975013D-11  .000000000000D+00
     .630000000000D+02  .130937500000D+02  .550130057982D-08  .891898858505D+00
     .657513737679D-06  .150910941884D-01  .664405524731D-05  .515371945572D+04
     .252000000000D+06 -.165775418282D-06  .789492989598D+00  .819563865662D-07
     .933927592301D+00  .239125000000D+03  .967073467040D+00 -.854571310611D-08
     .203937066226D-09  .100000000000D+01  .230000000000D+04  .000000000000D+00
     .240000000000D+01  .000000000000D+00  .232830643654D-08  .630000000000D+02
     .244800000000D+06  .400000000000D+01
27 24  2  6 22  0  0.0 -.171735882759D-05 -.341060513165D-11  .000000000000D+00
     .550000000000D+02  .114875000000D+03  .416874507354D-08  .279096674475D+01
     .585988163948D-05  .123348908965D-01  .980868935585D-05  .515368096542D+04
     .252000000000D+06 -.540167093277D-07  .297201498465D+01 -.182539224625D-06
     .964158024915D+00  .190437500000D+03  .755151621130D+00 -.760567394971D-08
    -.810748056625D-10  .100000000000D+01  .230000000000D+04  .000000000000D+00
     .240000000000D+01  .000000000000D+00  .186264514923D-08  .550000000000D+02
     .244800000000D+06  .400000000000D+01
22 24  2  6 22  0  0.0  .354843214154D-04 -.625277607469D-11  .000000000000D+00
     .730000000000D+02  .291250000000D+02  .443804200512D-08 -.304147066167D+01
     .151805579662D-05  .145645870361D-01  .875443220139D-05  .515371546173D+04
     .252000000000D+06  .147148966789D-06  .202174026297D+01  .210478901863D-06
     .961762297603D+00  .207875000000D+03 -.114285260518D+01 -.754352850396D-08
    -.507878298027D-09  .100000000000D+01  .230000000000D+04  .000000000000D+00
     .240000000000D+01  .000000000000D+00 -.111758708954D-07  .730000000000D+02
     .244800000000D+06  .400000000000D+01
21 24  2  6 22  0  0.0  .135848298669D-03 -.136424205266D-11  .000000000000D+00
     .610000000000D+02  .832187500000D+02  .456554731623D-08  .263564415480D+01
     .436231493950D-05  .252889180556D-01  .105239450932D-05  .515373189163D+04
     .252000000000D+06  .137835741043D-06 -.234775596909D+01  .562518835068D-06
     .961878802936D+00  .357062500000D+03 -.634597154799D+00 -.812462413749D-08
     .310727228751D-10  .100000000000D+01  .230000000000D+04  .000000000000D+00
     .240000000000D+01  .000000000000D+00 -.102445483208D-07  .610000000000D+02
     .244800000000D+06  .400000000000D+01
26 24  2  6 22  0  0.0  .192906707525D-03 -.386535248253D-11  .000000000000D+00
     .600000000000D+02 -.334375000000D+01  .535200864693D-08 -.178264192834D+01
    -.393018126488D-06  .881556223612D-02  .759772956371D-05  .515357704544D+04
     .252000000000D+06  .335276126862D-07  .185468110552D+01 -.122934579849D-06
     .931473557464D+00  .213968750000D+03  .527456301369D+00 -.822569977627D-08
    -.417874549009D-09  .100000000000D+01  .230000000000D+04  .000000000000D+00
     .240000000000D+01  .000000000000D+00  .698491930962D-08  .600000000000D+02
     .244800000000D+06  .400000000000D+01
15 24  2  6 22  0  0.0  .125029124320D-03  .397903932026D-11  .000000000000D+00
     .530000000000D+02 -.933125000000D+02  .478091342995D-08  .171034158225D+01
    -.498071312904D-05  .154243233847D-01  .106636434793D-04  .515360979652D+04
     .252000000000D+06 -.156462192535D-06 -.312130315309D+00 -.337138772011D-06
     .934816626636D+00  .163656250000D+03  .128953791758D+01 -.801961976364D-08
     .427160650099D-09  .100000000000D+01  .230000000000D+04  .000000000000D+00
     .240000000000D+01  .000000000000D+00 -.102445483208D-07  .530000000000D+02
     .244800000000D+06  .400000000000D+01
20 24  2  6 22  0  0.0  .388474203646D-03 -.147792889038D-11  .000000000000D+00
     .420000000000D+02 -.126968750000D+03  .466983737461D-08  .123933498565D+01
    -.653788447380D-05  .390866608359D-02  .353716313839D-05  .515371710014D+04
     .252000000000D+06 -.670552253723D-07 -.138481982164D+01  .577419996262D-07
     .951993425136D+00  .308375000000D+03 -.264192777563D+01 -.836784855448D-08
    -.283583240952D-09  .100000000000D+01  .230000000000D+04  .000000000000D+00
     .240000000000D+01  .000000000000D+00 -.838190317154D-08  .420000000000D+02
     .244800000000D+06  .400000000000D+01
25 24  2  6 22  0  0.0  .487781595439D-03  .125055521494D-11  .000000000000D+00
     .820000000000D+02  .155312500000D+02  .497592155282D-08 -.972537066690D+00
     .100024044514D-05  .118092804914D-01  .830180943012D-05  .515360995293D+04
     .252000000000D+06  .409781932831D-07  .191512803352D+01  .206753611565D-06
     .950728849490D+00  .216906250000D+03  .107251729892D+01 -.813676750046D-08
    -.553237330270D-09  .100000000000D+01  .230000000000D+04  .000000000000D+00
     .240000000000D+01  .000000000000D+00  .558793544769D-08  .820000000000D+02
     .244800000000D+06  .400000000000D+01
